OBJECT_NAME,OBJECT_ID,EPOCH,MEAN_MOTION,ECCENTRICITY,INCLINATION,RA_OF_ASC_NODE,ARG_OF_PERICENTER,MEAN_ANOMALY,EPHEMERIS_TYPE,CLASSIFICATION_TYPE,NORAD_CAT_ID,ELEMENT_SET_NO,REV_AT_EPOCH,BSTAR,MEAN_MOTION_DOT,MEAN_MOTION_DDOT
SWARM A,2013-067B,2026-07-12T13:45:03.111552,15.51424848,.00033085,87.3303,46.8031,94.4920,265.6720,0,U,39452,999,71018,.11220063E-3,.6652E-4,0
SWARM C,2013-067C,2026-07-12T13:44:54.962304,15.51424196,.00032915,87.3303,45.3839,94.4473,265.7164,0,U,39453,999,71014,.112817E-3,.6689E-4,0
BRITE-CA1 (TORONTO),2014-033L,2026-07-11T20:05:46.288320,14.72718584,.00781937,97.9767,321.3152,197.0405,162.8175,0,U,40020,999,64584,.93137253E-4,.569E-5,0
OCO 2,2014-035A,2026-07-12T13:30:47.055168,14.57131013,.00014517,98.2021,134.4706,81.3074,278.8289,0,U,40059,999,63974,.48969571E-4,.176E-5,0
BRITE-PL2 (HEWELIUSZ),2014-049B,2026-07-11T21:01:11.261856,14.94681645,.0014633,97.9118,305.0696,33.0365,327.1766,0,U,40119,999,64513,.9874E-4,.1013E-4,0
MMS 1,2015-011A,2026-07-12T14:00:01.999872,0.28451682,.83021883,72.4948,348.4557,167.9240,9.2234,0,U,40482,999,135,0,-.1328E-4,0
MMS 2,2015-011B,2026-07-12T14:00:01.999872,0.28451706,.83050072,72.4988,348.4547,167.9270,9.2112,0,U,40483,999,135,0,-.1328E-4,0
MMS 3,2015-011C,2026-07-12T14:00:01.999872,0.28448196,.8303608,72.4990,348.4659,167.9350,9.1822,0,U,40484,999,132,0,-.1328E-4,0
MMS 4,2015-011D,2026-07-12T14:00:01.999872,0.28452136,.83032973,72.4941,348.4501,167.9443,9.1799,0,U,40485,999,138,0,-.1328E-4,0
ASTROSAT,2015-052A,2026-07-11T18:43:55.447104,14.82549129,.00077569,5.9982,338.3312,22.2669,337.7795,0,U,40930,999,58348,.62854136E-4,.1187E-4,0
DAMPE,2015-078A,2026-07-12T14:18:14.857920,15.30850499,.0011897,97.4564,199.1885,355.0465,5.0657,0,U,41173,999,58843,.40270719E-4,.1124E-4,0
PISAT,2016-059B,2026-07-12T13:13:06.910752,14.69026784,.00303469,97.8189,192.9148,122.9134,237.4998,0,U,41784,999,52346,.87651812E-4,.47E-5,0
HXMT (HUIYAN),2017-034A,2026-07-12T15:43:02.373312,15.18675606,.00325386,43.0151,41.2092,305.1909,54.5894,0,U,42758,999,50153,.1403888E-3,.2757E-4,0
FLYING LAPTOP,2017-042G,2026-07-12T13:56:13.147008,15.01302217,.00198204,97.4790,348.1565,40.8258,319.4447,0,U,42831,999,49026,.17186147E-3,.2162E-4,0
ZHANGHENG 1-01 (CSES-1),2018-015C,2026-07-12T14:24:49.887360,15.20587189,.00161702,97.6882,359.7685,173.7148,186.4293,0,U,43194,999,46850,.20470899E-3,.4426E-4,0
SALSAT,2020-068K,2026-07-11T12:58:29.571456,15.30139435,.00088233,97.8855,197.0941,206.5203,153.5586,0,U,46495,999,31908,.15528118E-3,.4447E-4,0
IXPE,2021-121A,2026-07-12T16:00:01.999584,15.10474421,.00067091,0.2296,124.5351,103.5692,176.3083,0,U,49954,999,579,.4132027E-3,.7933E-4,0
