SWARM A                 
1 39452U 13067B   26193.57295268  .00006652  00000+0  11220-3 0  9992
2 39452  87.3303  46.8031 0003308  94.4920 265.6720 15.51424848710180
SWARM C                 
1 39453U 13067C   26193.57285836  .00006689  00000+0  11282-3 0  9991
2 39453  87.3303  45.3839 0003291  94.4473 265.7164 15.51424196710140
BRITE-CA1 (TORONTO)     
1 40020U 14033L   26192.83734130  .00000569  00000+0  93137-4 0  9992
2 40020  97.9767 321.3152 0078193 197.0405 162.8175 14.72718584645848
OCO 2                   
1 40059U 14035A   26193.56304462  .00000176  00000+0  48970-4 0  9997
2 40059  98.2021 134.4706 0001451  81.3074 278.8289 14.57131013639740
BRITE-PL2 (HEWELIUSZ)   
1 40119U 14049B   26192.87582479  .00001013  00000+0  98740-4 0  9999
2 40119  97.9118 305.0696 0014633  33.0365 327.1766 14.94681645645137
MMS 1                   
1 40482U 15011A   26193.58335648 -.00001328  00000+0  00000+0 0  9992
2 40482  72.4948 348.4557 8302188 167.9240   9.2234  0.28451682  1354
MMS 2                   
1 40483U 15011B   26193.58335648 -.00001328  00000+0  00000+0 0  9993
2 40483  72.4988 348.4547 8305007 167.9270   9.2112  0.28451706  1356
MMS 3                   
1 40484U 15011C   26193.58335648 -.00001328  00000+0  00000+0 0  9994
2 40484  72.4990 348.4659 8303608 167.9350   9.1822  0.28448196  1321
MMS 4                   
1 40485U 15011D   26193.58335648 -.00001328  00000+0  00000+0 0  9995
2 40485  72.4941 348.4501 8303297 167.9443   9.1799  0.28452136  1389
ASTROSAT                
1 40930U 15052A   26192.78050286  .00001187  00000+0  62854-4 0  9990
2 40930   5.9982 338.3312 0007756  22.2669 337.7795 14.82549129583480
DAMPE                   
1 41173U 15078A   26193.59600530  .00001124  00000+0  40271-4 0  9991
2 41173  97.4564 199.1885 0011897 355.0465   5.0657 15.30850499588433
PISAT                   
1 41784U 16059B   26193.55077443  .00000470  00000+0  87652-4 0  9993
2 41784  97.8189 192.9148 0030346 122.9134 237.4998 14.69026784523469
HXMT (HUIYAN)           
1 42758U 17034A   26193.65488858  .00002757  00000+0  14039-3 0  9994
2 42758  43.0151  41.2092 0032538 305.1909  54.5894 15.18675606501532
FLYING LAPTOP           
1 42831U 17042G   26193.58070772  .00002162  00000+0  17186-3 0  9995
2 42831  97.4790 348.1565 0019820  40.8258 319.4447 15.01302217490260
ZHANGHENG 1-01 (CSES-1) 
1 43194U 18015C   26193.60057740  .00004426  00000+0  20471-3 0  9998
2 43194  97.6882 359.7685 0016170 173.7148 186.4293 15.20587189468504
SALSAT                  
1 46495U 20068K   26192.54062004  .00004447  00000+0  15528-3 0  9997
2 46495  97.8855 197.0941 0008823 206.5203 153.5586 15.30139435319080
IXPE                    
1 49954U 21121A   26193.66668981  .00007933  00000+0  41320-3 0  9993
2 49954   0.2296 124.5351 0006709 103.5692 176.3083 15.10474421  5799
